COSMOS 1933             
1 18958U 88020A   26041.10183980  .00003519  00000+0  17293-3 0  9994
2 18958  82.5121 278.2073 0003102 314.2147  45.8831 15.17744665 46048
SL-3 R/B                
1 19046U 88032B   26041.14422592  .00006462  00000+0  30468-3 0  9994
2 19046  97.5153  24.5099 0025252 334.2484  25.7491 15.19552206 47921
SL-16 R/B               
1 19120U 88039B   26040.65428423 -.00000058  00000+0 -46937-5 0  9995
2 19120  71.0149 127.8315 0021031  17.0993 343.0836 14.19611550954402
COSMOS 1953             
1 19210U 88050A   26040.86343755  .00011030  00000+0  40243-3 0  9997
2 19210  82.5093 186.2144 0010736 218.2468 141.8011 15.27962113 33533
SL-8 R/B                
1 19257U 88053B   26040.86231286  .00000287  00000+0  10153-3 0  9995
2 19257  74.0481 163.7539 0020456 348.1087 155.4218 14.38898946972590
COSMOS 1975             
1 19573U 88093A   26040.75858831  .00010113  00000+0  37330-3 0  9994
2 19573  82.5220 145.7047 0010331 268.0750  91.9306 15.27577379 15142
SL-14 R/B               
1 19574U 88093B   26041.18394667  .00000461  00000+0  50236-4 0  9991
2 19574  82.5280  67.8719 0021978 126.6199 303.2106 14.85625012996959
SL-16 R/B               
1 19650U 88102B   26040.93346815  .00000286  00000+0  16851-3 0  9990
2 19650  70.9975 209.8944 0012512  47.3325 312.8850 14.16147843922965
INTERCOSMOS 24          
1 20261U 89080A   26041.16169951  .00000542  00000+0  15646-3 0  9992
2 20261  82.6066 122.3224 1187964 356.7501   2.6327 12.59519725663337
SL-14 R/B               
1 20262U 89080C   26040.86956997  .00000477  00000+0  14452-3 0  9994
2 20262  82.5945 191.0448 1229475 248.3648  98.2271 12.50459348656679
DELTA 1 R/B             
1 20323U 89089B   26041.09908256  .00000408  00000+0  10979-3 0  9996
2 20323  97.0725 252.9224 0068327 208.8617 150.8795 14.50639931891730
ARIANE 40 R/B           
1 20443U 90005H   26041.15589987  .00000281  00000+0  10304-3 0  9993
2 20443  98.3146 102.6295 0008936 289.4290  70.5932 14.39851822888846
